{"type": "FeatureCollection", "features": [ {"type": "Feature", "properties": {"norad_id": 66661, "name": "SNUGLITE-III", "group": "last-30-days", "lat": 73.60109856919024, "lon": 112.26784009014911, "alt_km": 589.6177051622317, "timestamp": "2025-12-03T08:58:44.779162+00:00", "meta": {"OBJECT_NAME": "SNUGLITE-III", "OBJECT_ID": "2025-274M", "EPOCH": "2025-12-03T00:28:13.384704", "MEAN_MOTION": 14.93016312, "ECCENTRICITY": 0.0013821, "INCLINATION": 97.7382, "RA_OF_ASC_NODE": 264.4002, "ARG_OF_PERICENTER": 318.0542, "MEAN_ANOMALY": 41.9618, "EPHEMERIS_TYPE": 0, "CLASSIFICATION_TYPE": "U", "NORAD_CAT_ID": 66661, "ELEMENT_SET_NO": 999, "REV_AT_EPOCH": 95, "BSTAR": 0.00039123, "MEAN_MOTION_DOT": 4.019e-05, "MEAN_MOTION_DDOT": 0}, "tle": {"line1": "1 66661U 25274M   25337.01959936  .00004019  00000+0  39123-3 0  9991", "line2": "2 66661  97.7382 264.4002 0013821 318.0542  41.9618 14.93016312   952"}}, "geometry": {"type": "Point", "coordinates": [112.26784009014911, 73.60109856919024]}}, {"type": "Feature", "properties": {"norad_id": 66662, "name": "2025-274N", "group": "last-30-days", "lat": 72.14588833456186, "lon": 109.71956551903762, "alt_km": 589.97661893841, "timestamp": "2025-12-03T08:58:44.779172+00:00", "meta": {"OBJECT_NAME": "2025-274N", "OBJECT_ID": "2025-274N", "EPOCH": "2025-12-02T18:01:47.108352", "MEAN_MOTION": 14.93076371, "ECCENTRICITY": 0.0014234, "INCLINATION": 97.7381, "RA_OF_ASC_NODE": 264.137, "ARG_OF_PERICENTER": 318.3075, "MEAN_ANOMALY": 41.7058, "EPHEMERIS_TYPE": 0, "CLASSIFICATION_TYPE": "U", "NORAD_CAT_ID": 66662, "ELEMENT_SET_NO": 999, "REV_AT_EPOCH": 91, "BSTAR": 0.00028428, "MEAN_MOTION_DOT": 2.909e-05, "MEAN_MOTION_DDOT": 0}, "tle": {"line1": "1 66662U 25274N   25336.75123968  .00002909  00000+0  28428-3 0  9992", "line2": "2 66662  97.7381 264.1370 0014234 318.3075  41.7058 14.93076371   913"}}, "geometry": {"type": "Point", "coordinates": [109.71956551903762, 72.14588833456186]}}, {"type": "Feature", "properties": {"norad_id": 66663, "name": "KSLV-II R/B", "group": "last-30-days", "lat": -29.20765185152759, "lon": 80.44582391111295, "alt_km": 605.0993905549058, "timestamp": "2025-12-03T08:58:44.779183+00:00", "meta": {"OBJECT_NAME": "KSLV-II R/B", "OBJECT_ID": "2025-274P", "EPOCH": "2025-12-02T09:35:20.901408", "MEAN_MOTION": 14.972028, "ECCENTRICITY": 0.00441352, "INCLINATION": 97.7406, "RA_OF_ASC_NODE": 263.8419, "ARG_OF_PERICENTER": 353.0151, "MEAN_ANOMALY": 7.045, "EPHEMERIS_TYPE": 0, "CLASSIFICATION_TYPE": "U", "NORAD_CAT_ID": 66663, "ELEMENT_SET_NO": 999, "REV_AT_EPOCH": 86, "BSTAR": -0.00028812216, "MEAN_MOTION_DOT": -3.459e-05, "MEAN_MOTION_DDOT": 0}, "tle": {"line1": "1 66663U 25274P   25336.39954747 -.00003459  00000+0 -28812-3 0  9990", "line2": "2 66663  97.7406 263.8419 0044135 353.0151   7.0450 14.97202800   863"}}, "geometry": {"type": "Point", "coordinates": [80.44582391111295, -29.20765185152759]}}, {"type": "Feature", "properties": {"norad_id": 66664, "name": "SOYUZ-MS 28", "group": "last-30-days", "lat": -34.17991350930825, "lon": 156.2957543262963, "alt_km": 423.79707482102367, "timestamp": "2025-12-03T08:58:44.779193+00:00", "meta": {"OBJECT_NAME": "SOYUZ-MS 28", "OBJECT_ID": "2025-275A", "EPOCH": "2025-12-02T22:20:22.303680", "MEAN_MOTION": 15.49259436, "ECCENTRICITY": 0.0003627, "INCLINATION": 51.631, "RA_OF_ASC_NODE": 191.0402, "ARG_OF_PERICENTER": 198.2346, "MEAN_ANOMALY": 161.8513, "EPHEMERIS_TYPE": 0, "CLASSIFICATION_TYPE": "U", "NORAD_CAT_ID": 66664, "ELEMENT_SET_NO": 999, "REV_AT_EPOCH": 92, "BSTAR": 0.00022507, "MEAN_MOTION_DOT": 0.00012082, "MEAN_MOTION_DDOT": 0}, "tle": {"line1": "1 66664U 25275A   25336.93081370  .00012082  00000+0  22507-3 0  9990", "line2": "2 66664  51.6310 191.0402 0003627 198.2346 161.8513 15.49259436   928"}}, "geometry": {"type": "Point", "coordinates": [156.2957543262963, -34.17991350930825]}}, {"type": "Feature", "properties": {"norad_id": 66820, "name": "KOMPSAT-7", "group": "last-30-days", "lat": -72.12448661260792, "lon": 78.85068365411982, "alt_km": 572.6530815608739, "timestamp": "2025-12-03T08:58:44.779207+00:00", "meta": {"OBJECT_NAME": "KOMPSAT-7", "OBJECT_ID": "2025-279A", "EPOCH": "2025-12-01T20:35:16.060992", "MEAN_MOTION": 14.98310631, "ECCENTRICITY": 0.00097501, "INCLINATION": 97.6394, "RA_OF_ASC_NODE": 281.9587, "ARG_OF_PERICENTER": 255.3935, "MEAN_ANOMALY": 104.6207, "EPHEMERIS_TYPE": 0, "CLASSIFICATION_TYPE": "U", "NORAD_CAT_ID": 66820, "ELEMENT_SET_NO": 999, "REV_AT_EPOCH": 2, "BSTAR": 8.4407298e-05, "MEAN_MOTION_DOT": 9.47e-06, "MEAN_MOTION_DDOT": 0}, "tle": {"line1": "1 66820U 25279A   25335.85782478  .00000947  00000+0  84407-4 0  9990", "line2": "2 66820  97.6394 281.9587 0009750 255.3935 104.6207 14.98310631    23"}}, "geometry": {"type": "Point", "coordinates": [78.85068365411982, -72.12448661260792]}}]}